[
  {
    "OBJECT_NAME": "HAWK-14B",
    "OBJECT_ID": "2026-067W",
    "EPOCH": "2026-04-21T01:31:20.301888",
    "MEAN_MOTION": 15.1762376,
    "ECCENTRICITY": 0.00010984,
    "INCLINATION": 97.4512,
    "RA_OF_ASC_NODE": 70.3725,
    "ARG_OF_PERICENTER": 205.4667,
    "MEAN_ANOMALY": 154.6512,
    "EPHEMERIS_TYPE": 0,
    "CLASSIFICATION_TYPE": "U",
    "NORAD_CAT_ID": 68436,
    "ELEMENT_SET_NO": 999,
    "REV_AT_EPOCH": 327,
    "BSTAR": 0.0001526899,
    "MEAN_MOTION_DOT": 3.004e-05,
    "MEAN_MOTION_DDOT": 0
  },
  {
    "OBJECT_NAME": "TRANSPORTER-16 OBJECT X",
    "OBJECT_ID": "2026-067X",
    "EPOCH": "2026-04-20T17:29:53.526336",
    "MEAN_MOTION": 15.18073408,
    "ECCENTRICITY": 0.00011372,
    "INCLINATION": 97.4476,
    "RA_OF_ASC_NODE": 70.0411,
    "ARG_OF_PERICENTER": 176.3453,
    "MEAN_ANOMALY": 183.779,
    "EPHEMERIS_TYPE": 0,
    "CLASSIFICATION_TYPE": "U",
    "NORAD_CAT_ID": 68437,
    "ELEMENT_SET_NO": 999,
    "REV_AT_EPOCH": 322,
    "BSTAR": 0.00048458149,
    "MEAN_MOTION_DOT": 9.812e-05,
    "MEAN_MOTION_DDOT": 0
  },
  {
    "OBJECT_NAME": "TRANSPORTER-16 OBJECT Y",
    "OBJECT_ID": "2026-067Y",
    "EPOCH": "2026-04-20T20:39:44.936064",
    "MEAN_MOTION": 15.1814106,
    "ECCENTRICITY": 0.00014612,
    "INCLINATION": 97.4493,
    "RA_OF_ASC_NODE": 70.1768,
    "ARG_OF_PERICENTER": 197.2577,
    "MEAN_ANOMALY": 162.8607,
    "EPHEMERIS_TYPE": 0,
    "CLASSIFICATION_TYPE": "U",
    "NORAD_CAT_ID": 68438,
    "ELEMENT_SET_NO": 999,
    "REV_AT_EPOCH": 324,
    "BSTAR": 0.00067213632,
    "MEAN_MOTION_DOT": 0.00013669,
    "MEAN_MOTION_DDOT": 0
  },
  {
    "OBJECT_NAME": "TRANSPORTER-16 OBJECT Z",
    "OBJECT_ID": "2026-067Z",
    "EPOCH": "2026-04-20T20:43:22.671840",
    "MEAN_MOTION": 15.17917806,
    "ECCENTRICITY": 5.086e-05,
    "INCLINATION": 97.4488,
    "RA_OF_ASC_NODE": 70.1724,
    "ARG_OF_PERICENTER": 198.4117,
    "MEAN_ANOMALY": 161.7099,
    "EPHEMERIS_TYPE": 0,
    "CLASSIFICATION_TYPE": "U",
    "NORAD_CAT_ID": 68439,
    "ELEMENT_SET_NO": 999,
    "REV_AT_EPOCH": 324,
    "BSTAR": 0.00058774758,
    "MEAN_MOTION_DOT": 0.00011865,
    "MEAN_MOTION_DDOT": 0
  },
  {
    "OBJECT_NAME": "TRANSPORTER-16 OBJECT AA",
    "OBJECT_ID": "2026-067AA",
    "EPOCH": "2026-04-20T20:42:06.352128",
    "MEAN_MOTION": 15.18058112,
    "ECCENTRICITY": 6.251e-05,
    "INCLINATION": 97.4487,
    "RA_OF_ASC_NODE": 70.173,
    "ARG_OF_PERICENTER": 194.6185,
    "MEAN_ANOMALY": 165.5031,
    "EPHEMERIS_TYPE": 0,
    "CLASSIFICATION_TYPE": "U",
    "NORAD_CAT_ID": 68440,
    "ELEMENT_SET_NO": 999,
    "REV_AT_EPOCH": 324,
    "BSTAR": 0.00079860875,
    "MEAN_MOTION_DOT": 0.00016221,
    "MEAN_MOTION_DDOT": 0
  },
  {
    "OBJECT_NAME": "HAWK-14C",
    "OBJECT_ID": "2026-067AB",
    "EPOCH": "2026-04-20T20:47:05.221824",
    "MEAN_MOTION": 15.17769065,
    "ECCENTRICITY": 7.941e-05,
    "INCLINATION": 97.4456,
    "RA_OF_ASC_NODE": 70.1575,
    "ARG_OF_PERICENTER": 290.8422,
    "MEAN_ANOMALY": 69.2727,
    "EPHEMERIS_TYPE": 0,
    "CLASSIFICATION_TYPE": "U",
    "NORAD_CAT_ID": 68441,
    "ELEMENT_SET_NO": 999,
    "REV_AT_EPOCH": 324,
    "BSTAR": 0.00015199682,
    "MEAN_MOTION_DOT": 3.003e-05,
    "MEAN_MOTION_DDOT": 0
  },
  {
    "OBJECT_NAME": "TRANSPORTER-16 OBJECT AC",
    "OBJECT_ID": "2026-067AC",
    "EPOCH": "2026-04-20T19:20:32.498016",
    "MEAN_MOTION": 15.1715147,
    "ECCENTRICITY": 0.00024702,
    "INCLINATION": 97.4506,
    "RA_OF_ASC_NODE": 70.1021,
    "ARG_OF_PERICENTER": 268.0716,
    "MEAN_ANOMALY": 92.0235,
    "EPHEMERIS_TYPE": 0,
    "CLASSIFICATION_TYPE": "U",
    "NORAD_CAT_ID": 68442,
    "ELEMENT_SET_NO": 999,
    "REV_AT_EPOCH": 323,
    "BSTAR": 0.00022363632,
    "MEAN_MOTION_DOT": 4.371e-05,
    "MEAN_MOTION_DDOT": 0
  },
  {
    "OBJECT_NAME": "TRANSPORTER-16 OBJECT AD",
    "OBJECT_ID": "2026-067AD",
    "EPOCH": "2026-04-20T16:11:47.065056",
    "MEAN_MOTION": 15.17080112,
    "ECCENTRICITY": 0.0002685,
    "INCLINATION": 97.4514,
    "RA_OF_ASC_NODE": 69.9737,
    "ARG_OF_PERICENTER": 273.5042,
    "MEAN_ANOMALY": 86.5885,
    "EPHEMERIS_TYPE": 0,
    "CLASSIFICATION_TYPE": "U",
    "NORAD_CAT_ID": 68443,
    "ELEMENT_SET_NO": 999,
    "REV_AT_EPOCH": 321,
    "BSTAR": 0.00019680796,
    "MEAN_MOTION_DOT": 3.831e-05,
    "MEAN_MOTION_DDOT": 0
  },
  {
    "OBJECT_NAME": "TRANSPORTER-16 OBJECT AE",
    "OBJECT_ID": "2026-067AE",
    "EPOCH": "2026-04-20T20:34:33.839040",
    "MEAN_MOTION": 15.18194227,
    "ECCENTRICITY": 0.00024112,
    "INCLINATION": 97.4539,
    "RA_OF_ASC_NODE": 70.1948,
    "ARG_OF_PERICENTER": 132.5413,
    "MEAN_ANOMALY": 227.6025,
    "EPHEMERIS_TYPE": 0,
    "CLASSIFICATION_TYPE": "U",
    "NORAD_CAT_ID": 68444,
    "ELEMENT_SET_NO": 999,
    "REV_AT_EPOCH": 324,
    "BSTAR": 0.0002320038,
    "MEAN_MOTION_DOT": 4.676e-05,
    "MEAN_MOTION_DDOT": 0
  },
  {
    "OBJECT_NAME": "TRANSPORTER-16 OBJECT AF",
    "OBJECT_ID": "2026-067AF",
    "EPOCH": "2026-04-20T19:24:42.568992",
    "MEAN_MOTION": 15.16920525,
    "ECCENTRICITY": 0.00031996,
    "INCLINATION": 97.4484,
    "RA_OF_ASC_NODE": 70.0923,
    "ARG_OF_PERICENTER": 282.3867,
    "MEAN_ANOMALY": 77.7009,
    "EPHEMERIS_TYPE": 0,
    "CLASSIFICATION_TYPE": "U",
    "NORAD_CAT_ID": 68445,
    "ELEMENT_SET_NO": 999,
    "REV_AT_EPOCH": 323,
    "BSTAR": 0.00017081506,
    "MEAN_MOTION_DOT": 3.301e-05,
    "MEAN_MOTION_DDOT": 0
  },
  {
    "OBJECT_NAME": "HADES-SA (SPINNYONE)",
    "OBJECT_ID": "2026-067AG",
    "EPOCH": "2026-04-20T14:40:49.316160",
    "MEAN_MOTION": 15.17108811,
    "ECCENTRICITY": 0.00045636,
    "INCLINATION": 97.4383,
    "RA_OF_ASC_NODE": 69.8724,
    "ARG_OF_PERICENTER": 279.0628,
    "MEAN_ANOMALY": 81.0089,
    "EPHEMERIS_TYPE": 0,
    "CLASSIFICATION_TYPE": "U",
    "NORAD_CAT_ID": 68446,
    "ELEMENT_SET_NO": 999,
    "REV_AT_EPOCH": 319,
    "BSTAR": 0.00075107192,
    "MEAN_MOTION_DOT": 0.00014842,
    "MEAN_MOTION_DDOT": 0
  },
  {
    "OBJECT_NAME": "TRANSPORTER-16 OBJECT AH",
    "OBJECT_ID": "2026-067AH",
    "EPOCH": "2026-04-20T20:36:42.812640",
    "MEAN_MOTION": 15.18116174,
    "ECCENTRICITY": 0.00017654,
    "INCLINATION": 97.449,
    "RA_OF_ASC_NODE": 70.1798,
    "ARG_OF_PERICENTER": 126.1538,
    "MEAN_ANOMALY": 233.986,
    "EPHEMERIS_TYPE": 0,
    "CLASSIFICATION_TYPE": "U",
    "NORAD_CAT_ID": 68447,
    "ELEMENT_SET_NO": 999,
    "REV_AT_EPOCH": 324,
    "BSTAR": 0.00030678694,
    "MEAN_MOTION_DOT": 6.192e-05,
    "MEAN_MOTION_DDOT": 0
  },
  {
    "OBJECT_NAME": "HAWK-14A",
    "OBJECT_ID": "2026-067AJ",
    "EPOCH": "2026-04-21T03:07:36.514272",
    "MEAN_MOTION": 15.17838139,
    "ECCENTRICITY": 0.00013018,
    "INCLINATION": 97.4572,
    "RA_OF_ASC_NODE": 70.4378,
    "ARG_OF_PERICENTER": 285.5296,
    "MEAN_ANOMALY": 74.5794,
    "EPHEMERIS_TYPE": 0,
    "CLASSIFICATION_TYPE": "U",
    "NORAD_CAT_ID": 68448,
    "ELEMENT_SET_NO": 999,
    "REV_AT_EPOCH": 328,
    "BSTAR": 0.00015014544,
    "MEAN_MOTION_DOT": 2.971e-05,
    "MEAN_MOTION_DDOT": 0
  },
  {
    "OBJECT_NAME": "TRANSPORTER-16 OBJECT AK",
    "OBJECT_ID": "2026-067AK",
    "EPOCH": "2026-04-20T19:18:29.222496",
    "MEAN_MOTION": 15.17284339,
    "ECCENTRICITY": 0.00018951,
    "INCLINATION": 97.4482,
    "RA_OF_ASC_NODE": 70.0973,
    "ARG_OF_PERICENTER": 279.8378,
    "MEAN_ANOMALY": 80.2641,
    "EPHEMERIS_TYPE": 0,
    "CLASSIFICATION_TYPE": "U",
    "NORAD_CAT_ID": 68449,
    "ELEMENT_SET_NO": 999,
    "REV_AT_EPOCH": 323,
    "BSTAR": 0.00029322627,
    "MEAN_MOTION_DOT": 5.775e-05,
    "MEAN_MOTION_DDOT": 0
  }
]